ONEWEB-0211             
1 48767U 21045A   26188.71631250  .00000194  00000+0  47702-3 0  9990
2 48767  87.8996 254.9874 0002527 110.0602 250.0801 13.16197118247148
ONEWEB-0223             
1 48768U 21045B   26188.72874770  .00000038  00000+0  65604-4 0  9997
2 48768  87.9002 255.0990 0002158 108.7573 251.3791 13.15547730247106
ONEWEB-0230             
1 48769U 21045C   26188.70022852  .00000079  00000+0  17569-3 0  9993
2 48769  87.8985 255.1171 0001951  96.6015 263.5338 13.15547470247365
ONEWEB-0237             
1 48770U 21045D   26188.68913149  .00000026  00000+0  33824-4 0  9995
2 48770  87.8984 255.1208 0002397  99.3127 260.8275 13.15547599247087
ONEWEB-0235             
1 48771U 21045E   26188.73983144 -.00000063  00000+0 -20251-3 0  9996
2 48771  87.9001 255.0978 0002080 110.6553 249.4801 13.15549767247088
ONEWEB-0242             
1 48772U 21045F   26188.73350251  .00000002  00000+0 -29217-4 0  9998
2 48772  87.9003 255.0964 0001921 102.1255 258.0090 13.15548406247124
ONEWEB-0241             
1 48773U 21045G   26188.72081037  .00000144  00000+0  34828-3 0  9990
2 48773  87.8997 255.1136 0002250 103.3533 256.7848 13.15550864247033
ONEWEB-0243             
1 48774U 21045H   26188.67645753 -.00000154  00000+0 -44225-3 0  9991
2 48774  87.8990 255.1368 0001674 110.4526 249.6784 13.15550421247055
ONEWEB-0222             
1 48775U 21045J   26188.73586470 -.00000013  00000+0 -69927-4 0  9990
2 48775  87.9000 255.0940 0002157 100.8237 259.3136 13.15546908247103
ONEWEB-0244             
1 48776U 21045K   26188.68596531 -.00000233  00000+0 -65348-3 0  9990
2 48776  87.9002 255.0997 0002020 102.2277 257.9080 13.15548305247663
ONEWEB-0247             
1 48777U 21045L   26188.68279701 -.00000108  00000+0 -31991-3 0  9996
2 48777  87.8987 255.1297 0001836 122.6214 237.5094 13.15548563247104
ONEWEB-0245             
1 48778U 21045M   26188.67803580 -.00000144  00000+0 -41745-3 0  9992
2 48778  87.9001 255.1117 0002234 102.2044 257.9337 13.15549055247071
ONEWEB-0229             
1 48779U 21045N   26188.67328516 -.00000111  00000+0 -32778-3 0  9994
2 48779  87.8999 255.1104 0001960 100.4670 259.6681 13.15547672247101
ONEWEB-0228             
1 48780U 21045P   26188.70670110  .00000115  00000+0  27073-3 0  9994
2 48780  87.9004 255.0976 0002106 101.7070 258.4297 13.15549248247020
ONEWEB-0232             
1 48781U 21045Q   26188.68121256 -.00000118  00000+0 -34648-3 0  9995
2 48781  87.9001 255.1030 0002174  99.9699 260.1676 13.15547502247347
ONEWEB-0231             
1 48782U 21045R   26188.73508049 -.00000003  00000+0 -42745-4 0  9992
2 48782  87.8997 255.1041 0002119 105.3725 254.7639 13.15547430247049
ONEWEB-0234             
1 48783U 21045S   26188.69691715  .00000029  00000+0  42728-4 0  9998
2 48783  87.8997 255.0940 0002879  92.8023 267.3437 13.15547135247173
ONEWEB-0238             
1 48784U 21045T   26188.69718083  .00000026  00000+0  34776-4 0  9998
2 48784  87.9001 255.0896 0002478  95.3244 264.8169 13.15548264247076
ONEWEB-0240             
1 48785U 21045U   26188.71844624  .00000090  00000+0  20523-3 0  9998
2 48785  87.9003 255.0948 0002279 104.7196 255.4187 13.15548813247107
ONEWEB-0246             
1 48786U 21045V   26188.71289898  .00000121  00000+0  28725-3 0  9992
2 48786  87.8998 255.1002 0001973 100.5958 259.5394 13.15547650246979
ONEWEB-0210             
1 48787U 21045W   26188.68754677 -.00000145  00000+0 -41928-3 0  9999
2 48787  87.9000 255.1025 0001550 120.5703 239.5580 13.15546983247010
ONEWEB-0214             
1 48788U 21045X   26188.69624421 -.00000213  00000+0 -59867-3 0  9991
2 48788  87.9001 255.0976 0001725  98.1977 261.9349 13.15547806246985
ONEWEB-0221             
1 48789U 21045Y   26188.70339808  .00000114  00000+0  26941-3 0  9991
2 48789  87.8998 255.1050 0002079 105.1166 255.0194 13.15547541247075
ONEWEB-0213             
1 48790U 21045Z   26188.69230462  .00000012  00000+0 -31280-5 0  9999
2 48790  87.8999 255.1100 0001990 107.1545 252.9803 13.15548146247130
ONEWEB-0212             
1 48791U 21045AA  26188.74536676 -.00000149  00000+0 -42903-3 0  9996
2 48791  87.9000 255.0936 0002114  98.5019 261.6351 13.15546480247133
ONEWEB-0227             
1 48792U 21045AB  26188.74458903 -.00000063  00000+0 -20233-3 0  9990
2 48792  87.8997 255.0940 0002089 101.0231 259.1134 13.15547579247085
ONEWEB-0226             
1 48793U 21045AC  26188.73824831 -.00000017  00000+0 -80464-4 0  9999
2 48793  87.8999 255.0997 0001893 104.4640 255.6701 13.15547369247058
ONEWEB-0224             
1 48794U 21045AD  26188.70181508  .00000018  00000+0  13104-4 0  9990
2 48794  87.8989 255.1402 0002937 105.4205 254.7250 13.15548358246976
ONEWEB-0233             
1 48795U 21045AE  26188.70643443  .00000069  00000+0  14946-3 0  9992
2 48795  87.8988 255.1466 0002174 106.8593 253.2776 13.15549332246996
ONEWEB-0190             
1 48796U 21045AF  26188.69388794  .00000036  00000+0  62727-4 0  9991
2 48796  87.8995 255.1120 0002037 118.3532 241.7804 13.15548437247069
