OBJECT_NAME,OBJECT_ID,EPOCH,MEAN_MOTION,ECCENTRICITY,INCLINATION,RA_OF_ASC_NODE,ARG_OF_PERICENTER,MEAN_ANOMALY,EPHEMERIS_TYPE,CLASSIFICATION_TYPE,NORAD_CAT_ID,ELEMENT_SET_NO,REV_AT_EPOCH,BSTAR,MEAN_MOTION_DOT,MEAN_MOTION_DDOT
ONEWEB-0211,2021-045A,2026-07-07T17:11:29.400000,13.16197118,.0002527,87.8996,254.9874,110.0602,250.0801,0,U,48767,999,24714,.47702E-3,.194E-5,0
ONEWEB-0223,2021-045B,2026-07-07T17:29:23.801280,13.15547730,.0002158,87.9002,255.0990,108.7573,251.3791,0,U,48768,999,24710,.65604E-4,.38E-6,0
ONEWEB-0230,2021-045C,2026-07-07T16:48:19.744128,13.15547470,.0001951,87.8985,255.1171,96.6015,263.5338,0,U,48769,999,24736,.17569E-3,.79E-6,0
ONEWEB-0237,2021-045D,2026-07-07T16:32:20.960736,13.15547599,.0002397,87.8984,255.1208,99.3127,260.8275,0,U,48770,999,24708,.33824E-4,.26E-6,0
ONEWEB-0235,2021-045E,2026-07-07T17:45:21.436416,13.15549767,.000208,87.9001,255.0978,110.6553,249.4801,0,U,48771,999,24708,-.20251E-3,-.63E-6,0
ONEWEB-0242,2021-045F,2026-07-07T17:36:14.616864,13.15548406,.0001921,87.9003,255.0964,102.1255,258.0090,0,U,48772,999,24712,-.29217E-4,.2E-7,0
ONEWEB-0241,2021-045G,2026-07-07T17:17:58.015968,13.15550864,.000225,87.8997,255.1136,103.3533,256.7848,0,U,48773,999,24703,.34828E-3,.144E-5,0
ONEWEB-0243,2021-045H,2026-07-07T16:14:05.930592,13.15550421,.0001674,87.8990,255.1368,110.4526,249.6784,0,U,48774,999,24705,-.44225E-3,-.154E-5,0
ONEWEB-0222,2021-045J,2026-07-07T17:39:38.710080,13.15546908,.0002157,87.9000,255.0940,100.8237,259.3136,0,U,48775,999,24710,-.69927E-4,-.13E-6,0
ONEWEB-0244,2021-045K,2026-07-07T16:27:47.402784,13.15548305,.000202,87.9002,255.0997,102.2277,257.9080,0,U,48776,999,24766,-.65348E-3,-.233E-5,0
ONEWEB-0247,2021-045L,2026-07-07T16:23:13.661664,13.15548563,.0001836,87.8987,255.1297,122.6214,237.5094,0,U,48777,999,24710,-.31991E-3,-.108E-5,0
ONEWEB-0245,2021-045M,2026-07-07T16:16:22.293120,13.15549055,.0002234,87.9001,255.1117,102.2044,257.9337,0,U,48778,999,24707,-.41745E-3,-.144E-5,0
ONEWEB-0229,2021-045N,2026-07-07T16:09:31.837824,13.15547672,.000196,87.8999,255.1104,100.4670,259.6681,0,U,48779,999,24710,-.32778E-3,-.111E-5,0
ONEWEB-0228,2021-045P,2026-07-07T16:57:38.975040,13.15549248,.0002106,87.9004,255.0976,101.7070,258.4297,0,U,48780,999,24702,.27073E-3,.115E-5,0
ONEWEB-0232,2021-045Q,2026-07-07T16:20:56.765184,13.15547502,.0002174,87.9001,255.1030,99.9699,260.1676,0,U,48781,999,24734,-.34648E-3,-.118E-5,0
ONEWEB-0231,2021-045R,2026-07-07T17:38:30.954336,13.15547430,.0002119,87.8997,255.1041,105.3725,254.7639,0,U,48782,999,24704,-.42745E-4,-.3E-7,0
ONEWEB-0234,2021-045S,2026-07-07T16:43:33.641760,13.15547135,.0002879,87.8997,255.0940,92.8023,267.3437,0,U,48783,999,24717,.42728E-4,.29E-6,0
ONEWEB-0238,2021-045T,2026-07-07T16:43:56.423712,13.15548264,.0002478,87.9001,255.0896,95.3244,264.8169,0,U,48784,999,24707,.34776E-4,.26E-6,0
ONEWEB-0240,2021-045U,2026-07-07T17:14:33.755136,13.15548813,.0002279,87.9003,255.0948,104.7196,255.4187,0,U,48785,999,24710,.20523E-3,.9E-6,0
ONEWEB-0246,2021-045V,2026-07-07T17:06:34.471872,13.15547650,.0001973,87.8998,255.1002,100.5958,259.5394,0,U,48786,999,24697,.28725E-3,.121E-5,0
ONEWEB-0210,2021-045W,2026-07-07T16:30:04.040928,13.15546983,.000155,87.9000,255.1025,120.5703,239.5580,0,U,48787,999,24701,-.41928E-3,-.145E-5,0
ONEWEB-0214,2021-045X,2026-07-07T16:42:35.499744,13.15547806,.0001725,87.9001,255.0976,98.1977,261.9349,0,U,48788,999,24698,-.59867E-3,-.213E-5,0
ONEWEB-0221,2021-045Y,2026-07-07T16:52:53.594112,13.15547541,.0002079,87.8998,255.1050,105.1166,255.0194,0,U,48789,999,24707,.26941E-3,.114E-5,0
ONEWEB-0213,2021-045Z,2026-07-07T16:36:55.119168,13.15548146,.000199,87.8999,255.1100,107.1545,252.9803,0,U,48790,999,24713,-.3128E-5,.12E-6,0
ONEWEB-0212,2021-045AA,2026-07-07T17:53:19.688064,13.15546480,.0002114,87.9000,255.0936,98.5019,261.6351,0,U,48791,999,24713,-.42903E-3,-.149E-5,0
ONEWEB-0227,2021-045AB,2026-07-07T17:52:12.492192,13.15547579,.0002089,87.8997,255.0940,101.0231,259.1134,0,U,48792,999,24708,-.20233E-3,-.63E-6,0
ONEWEB-0226,2021-045AC,2026-07-07T17:43:04.653984,13.15547369,.0001893,87.8999,255.0997,104.4640,255.6701,0,U,48793,999,24705,-.80464E-4,-.17E-6,0
ONEWEB-0224,2021-045AD,2026-07-07T16:50:36.822912,13.15548358,.0002937,87.8989,255.1402,105.4205,254.7250,0,U,48794,999,24697,.13104E-4,.18E-6,0
ONEWEB-0233,2021-045AE,2026-07-07T16:57:15.934752,13.15549332,.0002174,87.8988,255.1466,106.8593,253.2776,0,U,48795,999,24699,.14946E-3,.69E-6,0
ONEWEB-0190,2021-045AF,2026-07-07T16:39:11.918016,13.15548437,.0002037,87.8995,255.1120,118.3532,241.7804,0,U,48796,999,24706,.62727E-4,.36E-6,0
